{"fetched_at":"2026-03-29T16:36:15Z","count":15609,"tles":[{"name":"STARLINK-35703","line1":"1 66970U 25288M   26087.86869870  .00022909  00000+0  83918-3 0  9991","line2":"2 66970  42.9976 274.8695 0001457 265.1423  94.9262 15.27589639 18228","category":"Starlink"}]}